[{"OBJECT_NAME":"JILIN-1 GAOFEN 2F","OBJECT_ID":"2021-097A","EPOCH":"2026-03-09T22:15:16.366464","MEAN_MOTION":15.06938169,"ECCENTRICITY":0.00186372,"INCLINATION":97.6538,"RA_OF_ASC_NODE":195.5232,"ARG_OF_PERICENTER":201.1609,"MEAN_ANOMALY":158.885,"EPHEMERIS_TYPE":0,"CLASSIFICATION_TYPE":"U","NORAD_CAT_ID":49338,"ELEMENT_SET_NO":999,"REV_AT_EPOCH":24136,"BSTAR":0.0003789548,"MEAN_MOTION_DOT":5.624e-5,"MEAN_MOTION_DDOT":0},{"OBJECT_NAME":"STARLINK-35285","OBJECT_ID":"2025-218S","EPOCH":"2026-03-09T14:08:42.306720","MEAN_MOTION":15.05647145,"ECCENTRICITY":0.000241,"INCLINATION":97.6005,"RA_OF_ASC_NODE":292.8413,"ARG_OF_PERICENTER":71.0843,"MEAN_ANOMALY":289.0645,"EPHEMERIS_TYPE":0,"CLASSIFICATION_TYPE":"U","NORAD_CAT_ID":65807,"ELEMENT_SET_NO":999,"REV_AT_EPOCH":2495,"BSTAR":0.00019659,"MEAN_MOTION_DOT":2.777e-5,"MEAN_MOTION_DDOT":0}]
